index,OBJECT_NAME,OBJECT_ID,EPOCH,MEAN_MOTION,ECCENTRICITY,INCLINATION,RA_OF_ASC_NODE,ARG_OF_PERICENTER,MEAN_ANOMALY,EPHEMERIS_TYPE,CLASSIFICATION_TYPE,NORAD_CAT_ID,ELEMENT_SET_NO,REV_AT_EPOCH,BSTAR,MEAN_MOTION_DOT,MEAN_MOTION_DDOT,GROUP,downloaded
45,FENGYUN 3E,2021-062A,2022-05-13T04:54:30.668832,14.19729603,0.0002933,98.7116,135.7207,88.2858,271.8656,0,U,49008,999,4431,1.224e-05,-1.8e-07,0.0,weather,2022-05-13 13:10:31.381687
46,GOES 18,2022-021A,2022-05-12T19:48:37.159776,1.00270745,8.48e-05,0.0018,73.4217,44.3753,320.441,0,U,51850,999,58,0.0,-1.72e-06,0.0,weather,2022-05-13 13:10:31.381687
0,NOAA 1 [-],1970-106A,2022-05-12T22:13:37.169760,12.54004628,0.0031681,101.5579,197.6254,32.516,140.8589,0,U,4793,999,35313,1.7049e-05,-4.1e-07,0.0,noaa,2022-05-13 13:10:32.252465
1,NOAA 2 (ITOS-D) [-],1972-082A,2022-05-12T17:19:57.502848,12.5314634,0.0004316,101.951,114.7359,137.8539,35.2378,0,U,6235,999,26749,0.00014502,-2.3e-07,0.0,noaa,2022-05-13 13:10:32.252465
2,NOAA 3 [-],1973-086A,2022-05-13T05:00:10.335744,12.40347969,0.0006576,102.205,114.6387,359.778,11.2987,0,U,6920,999,19660,6.2338e-05,-3.7e-07,0.0,noaa,2022-05-13 13:10:32.252465
3,NOAA 4 [-],1974-089A,2022-05-12T21:44:46.800672,12.53157256,0.0008983,101.9109,112.4415,169.2533,205.0548,0,U,7529,999,17209,5.0226e-05,-3.8e-07,0.0,noaa,2022-05-13 13:10:32.252465
4,NOAA 5 [-],1976-077A,2022-05-12T16:45:04.568256,12.37770357,0.0009538,102.0956,101.0708,203.014,330.5082,0,U,9057,999,6931,-1.8364e-05,-4.7e-07,0.0,noaa,2022-05-13 13:10:32.252465
5,TIROS N [-],1978-096A,2022-05-12T20:44:16.984608,14.18378367,0.0009601,98.6381,187.5457,242.7299,117.2899,0,U,11060,999,46656,7.0565e-05,1.03e-06,0.0,noaa,2022-05-13 13:10:32.252465
6,NOAA 6 [-],1979-057A,2022-05-12T17:47:58.619616,14.33741952,0.001048,98.6652,143.5394,11.2808,348.8609,0,U,11416,999,23640,9.5921e-05,2.22e-06,0.0,noaa,2022-05-13 13:10:32.252465
7,NOAA 7 [-],1981-059A,2022-05-13T01:47:18.291264,14.17326817,0.0010959,99.0022,177.0455,211.9916,148.0594,0,U,12553,999,11300,4.4549e-05,4.4e-07,0.0,noaa,2022-05-13 13:10:32.252465
8,NOAA 8 [-],1983-022A,2022-05-12T17:05:20.578272,14.28798919,0.0014315,98.6856,123.3977,317.6022,42.4052,0,U,13923,999,3730,5.6383e-05,9.8e-07,0.0,noaa,2022-05-13 13:10:32.252465
9,NOAA 9 [-],1984-123A,2022-05-12T17:22:41.443392,14.1619295,0.001377,99.043,104.553,266.8459,266.8538,0,U,15427,999,93155,6.196e-05,7.7e-07,0.0,noaa,2022-05-13 13:10:32.252465
10,NOAA 10 [-],1986-073A,2022-05-12T17:51:38.714112,14.28191685,0.0013298,98.5663,119.5602,60.3033,113.0579,0,U,16969,999,85573,5.6318e-05,9.7e-07,0.0,noaa,2022-05-13 13:10:32.252465
11,NOAA 11 [-],1988-089A,2022-05-12T17:04:54.046560,14.15305509,0.0009988,98.4228,123.7604,283.5366,76.4696,0,U,19531,999,73576,4.4336e-05,4.6e-07,0.0,noaa,2022-05-13 13:10:32.252465
12,NOAA 12 [-],1991-032A,2022-05-12T22:01:44.702400,14.2598645,0.0014884,98.514,133.7381,84.1108,276.1769,0,U,21263,999,61166,4.8764e-05,7.4e-07,0.0,noaa,2022-05-13 13:10:32.252465
13,NOAA 13 [-],1993-050A,2022-05-12T16:23:09.479904,14.1283531,0.0010712,98.5025,114.2713,86.1374,274.1024,0,U,22739,999,48200,6.8238e-05,8.6e-07,0.0,noaa,2022-05-13 13:10:32.252465
14,NOAA 14 [-],1994-089A,2022-05-12T19:48:30.857760,14.14193002,0.001059,98.4508,161.4469,69.9818,290.2495,0,U,23455,999,41167,3.6985e-05,3e-07,0.0,noaa,2022-05-13 13:10:32.252465
15,NOAA 15 [B],1998-030A,2022-05-13T03:06:39.548160,14.2612193,0.0011135,98.647,163.122,46.0609,314.1488,0,U,25338,999,24823,9.794e-05,1.91e-06,0.0,noaa,2022-05-13 13:10:32.252465
16,NOAA 16 [-],2000-055A,2022-05-12T20:35:52.298016,14.1332218,0.0009358,98.6388,192.9825,266.5954,93.4148,0,U,26536,999,41232,5.2693e-05,5.6e-07,0.0,noaa,2022-05-13 13:10:32.252465
17,NOAA 17 [-],2002-032A,2022-05-12T20:04:41.159136,14.25113913,0.0012294,98.6696,78.5168,20.9144,339.2536,0,U,27453,999,3378,4.5721e-05,6.3e-07,0.0,noaa,2022-05-13 13:10:32.252465
18,NOAA 18 [B],2005-018A,2022-05-13T03:33:38.109600,14.12726305,0.0015274,98.9502,203.61,73.5688,286.7161,0,U,28654,999,87508,9.7472e-05,1.36e-06,0.0,noaa,2022-05-13 13:10:32.252465
19,NOAA 19 [+],2009-005A,2022-05-13T03:29:35.794752,14.12561482,0.0012871,99.151,166.5351,288.278,71.699,0,U,33591,999,68346,0.00012395,1.83e-06,0.0,noaa,2022-05-13 13:10:32.252465
20,SUOMI NPP [+],2011-061A,2022-05-13T00:37:48.425088,14.19563253,0.0001402,98.731,72.0722,84.5789,327.7887,0,U,37849,999,54616,4.7252e-05,5.6e-07,0.0,noaa,2022-05-13 13:10:32.252465
21,NOAA 20 [+],2017-073A,2022-05-13T01:14:37.867488,14.1955048,0.0001285,98.715,72.1629,105.495,254.6369,0,U,43013,999,23220,4.0059e-05,4.1e-07,0.0,noaa,2022-05-13 13:10:32.252465
0,GOES 1 (SMS-C) [-],1975-100A,2022-05-12T11:13:04.272384,1.00299994,5.62e-05,8.3646,296.215,175.1527,201.0964,0,U,8366,999,17006,0.0,-2.1e-06,0.0,goes,2022-05-13 13:10:33.040471
1,GOES 2 [-],1977-048A,2022-05-12T17:38:00.083616,0.99402104,0.0012279,9.9314,307.4892,30.3458,332.7526,0,U,10061,999,3140,0.0,-1.57e-06,0.0,goes,2022-05-13 13:10:33.040471
2,GOES 3 [-],1978-062A,2022-05-13T03:18:54.780192,0.99360022,0.0003614,10.2537,311.9376,116.6987,251.5934,0,U,10953,999,11373,0.0,6.7e-07,0.0,goes,2022-05-13 13:10:33.040471
3,GOES 4 [-],1980-074A,2022-05-12T20:50:15.642240,0.99231758,0.0034499,11.2069,315.7553,73.2445,279.8208,0,U,11964,999,11258,0.0,-2.84e-06,0.0,goes,2022-05-13 13:10:33.040471
4,GOES 5 [-],1981-049A,2022-05-12T12:54:36.661248,1.00336024,0.0002086,12.0197,327.0537,102.2831,262.1027,0,U,12472,999,10784,0.0,-1.86e-06,0.0,goes,2022-05-13 13:10:33.040471
5,GOES 6 [-],1983-041A,2022-05-12T12:55:44.481792,1.00317377,0.0004765,12.5642,332.334,119.4506,244.1581,0,U,14050,999,20101,0.0,-2.08e-06,0.0,goes,2022-05-13 13:10:33.040471
6,GOES 7 [-],1987-022A,2022-05-12T11:19:28.589088,0.99897833,0.0007181,14.2726,348.8525,59.1975,287.8382,0,U,17561,999,11200,0.0,-2.66e-06,0.0,goes,2022-05-13 13:10:33.040471
7,GOES 8 [-],1994-022A,2022-05-12T12:03:16.796736,0.98907826,0.0008682,13.1479,24.454,26.9243,178.8551,0,U,23051,999,10932,0.0,-1.83e-06,0.0,goes,2022-05-13 13:10:33.040471
8,GOES 9 [-],1995-025A,2022-05-11T15:27:23.453280,0.98798854,0.0007929,12.6393,24.7584,74.5468,104.9342,0,U,23581,999,9796,0.0,-8.6e-07,0.0,goes,2022-05-13 13:10:33.040471
9,GOES 10 [-],1997-019A,2022-05-12T17:12:52.953120,0.99120948,0.0023778,11.3811,30.8784,200.035,346.0496,0,U,24786,999,9123,0.0,-1.9e-07,0.0,goes,2022-05-13 13:10:33.040471
10,GOES 11 [-],2000-022A,2022-05-12T02:51:48.580992,0.9904474,0.0002101,8.6095,59.6081,353.8314,186.869,0,U,26352,999,3764,0.0,-2.34e-06,0.0,goes,2022-05-13 13:10:33.040471
11,GOES 12 [-],2001-031A,2022-05-12T11:21:24.810912,0.99136037,0.0009118,9.4556,48.4194,335.5681,243.3075,0,U,26871,999,7592,0.0,7.6e-07,0.0,goes,2022-05-13 13:10:33.040471
12,EWS-G1 (GOES 13) [+],2006-018A,2022-05-12T20:31:56.958240,1.00274506,0.0001519,0.5094,96.7514,85.7224,57.8773,0,U,29155,999,2837,0.0,4.5e-07,0.0,goes,2022-05-13 13:10:33.040471
13,GOES 14 [B],2009-033A,2022-05-12T14:34:20.268192,1.0027116,0.0011341,0.2346,94.3259,122.2373,127.8716,0,U,35491,999,4710,0.0,-8.1e-07,0.0,goes,2022-05-13 13:10:33.040471
14,GOES 15 [B],2010-008A,2022-05-12T13:39:28.094688,1.00281186,0.0002749,0.2072,104.1223,347.019,216.2224,0,U,36411,999,4466,0.0,6.2e-07,0.0,goes,2022-05-13 13:10:33.040471
15,GOES 16 [+],2016-071A,2022-05-12T19:52:38.301312,1.00271333,8.43e-05,0.0418,270.7513,172.3133,10.4722,0,U,41866,999,2011,0.0,-2.37e-06,0.0,goes,2022-05-13 13:10:33.040471
16,GOES 17 [+],2018-022A,2022-05-12T16:08:17.749824,1.00272341,3.78e-05,0.0265,266.6383,122.1651,306.5011,0,U,43226,999,1541,0.0,1.08e-06,0.0,goes,2022-05-13 13:10:33.040471
17,GOES 18 [+],2022-021A,2022-05-12T19:48:37.159776,1.00270745,8.48e-05,0.0018,73.4217,44.3753,320.441,0,U,51850,999,58,0.0,-1.72e-06,0.0,goes,2022-05-13 13:10:33.040471
0,SCD 1,1993-009B,2022-05-13T05:07:29.091360,14.44680781,0.0043032,24.9699,72.9717,163.5208,334.2425,0,U,22490,999,54485,4.3444e-05,3.39e-06,0.0,resource,2022-05-13 13:10:34.196446
1,TECHSAT 1B (GO-32),1998-043D,2022-05-12T14:06:21.091104,14.23749888,0.0001114,98.8152,82.9663,156.2147,203.9083,0,U,25397,999,23832,3.662e-05,3.9e-07,0.0,resource,2022-05-13 13:10:34.196446
2,SCD 2,1998-060A,2022-05-12T19:13:53.726592,14.44193589,0.0017186,24.9962,289.9667,167.1214,329.9852,0,U,25504,999,24368,5.0087e-05,3.56e-06,0.0,resource,2022-05-13 13:10:34.196446
3,LANDSAT 7,1999-020A,2022-05-13T03:06:28.127808,14.59729348,0.0001284,97.9821,182.5281,100.0116,260.1235,0,U,25682,999,22741,6.3986e-05,2.61e-06,0.0,resource,2022-05-13 13:10:34.196446
4,DLR-TUBSAT,1999-029B,2022-05-13T02:44:03.247872,14.51491865,0.0013459,98.4861,75.3352,222.6854,137.3296,0,U,25757,999,21625,2.2864e-05,4.5e-07,0.0,resource,2022-05-13 13:10:34.196446
5,TERRA,1999-068A,2022-05-13T04:16:09.687360,14.57153379,0.0001428,98.1378,205.9038,97.4786,315.335,0,U,25994,999,19148,8.1653e-05,3.24e-06,0.0,resource,2022-05-13 13:10:34.196446
6,MAROC-TUBSAT,2001-056D,2022-05-12T20:25:18.489216,13.70156196,0.0020155,99.6194,273.2441,26.5709,138.6483,0,U,27004,999,2126,2.1355e-05,-2.6e-07,0.0,resource,2022-05-13 13:10:34.196446
7,AQUA,2002-022A,2022-05-13T02:57:15.998112,14.5725367,0.0001509,98.2455,75.3536,58.8204,312.427,0,U,27424,999,6508,0.00013447,5.62e-06,0.0,resource,2022-05-13 13:10:34.196446
8,IRS-P6 (RESOURCESAT-1),2003-046A,2022-05-13T03:41:36.860640,14.34188026,0.0059759,98.4059,205.0847,122.1204,238.5814,0,U,28051,999,96596,-0.00035191,-1.048e-05,0.0,resource,2022-05-13 13:10:34.196446
9,SHIYAN 1 (SY-1),2004-012A,2022-05-12T19:43:50.646144,15.01674016,0.0016352,97.9782,123.9628,94.8665,265.4425,0,U,28220,999,98472,0.00021617,2.751e-05,0.0,resource,2022-05-13 13:10:34.196446
10,AURA,2004-026A,2022-05-12T17:15:54.518400,14.57118124,0.0001506,98.2072,76.5708,86.7601,273.377,0,U,28376,999,94802,0.00012656,5.25e-06,0.0,resource,2022-05-13 13:10:34.196446
11,IRS-P5 (CARTOSAT-1),2005-017A,2022-05-12T21:20:19.472928,14.84080593,0.0001329,97.7213,194.4275,37.1401,322.9905,0,U,28649,999,92146,0.00010334,8.11e-06,0.0,resource,2022-05-13 13:10:34.196446
